{
"type": "FeatureCollection",
"name": "prosperity_regions",
"crs": { "type": "name", "properties": { "name": "urn:ogc:def:crs:OGC:1.3:CRS84" } },
"features": [
{ "type": "Feature", "properties": { "region_number": 1, "region_name": "Upper Peninsula Prosperity Alliance" }, "geometry": { "type": "MultiPolygon", "coordinates": [ [ [ [ -87.886949, 45.35311 ], [ -87.871268, 45.371467 ], [ -87.875424, 45.379373 ], [ -87.849322, 45.403872 ], [ -87.861697, 45.434473 ], [ -87.812976, 45.464159 ], [ -87.792769, 45.499967 ], [ -87.802241, 45.513059 ], [ -87.80339, 45.538272 ], [ -87.833591, 45.562529 ], [ -87.829346, 45.568776 ], [ -87.792372, 45.563055 ], [ -87.786767, 45.58283 ], [ -87.777199, 45.588499 ], [ -87.780845, 45.614599 ], [ -87.79588, 45.618846 ], [ -87.824676, 45.653211 ], [ -87.823164, 45.662732 ], [ -87.781623, 45.67328 ], [ -87.780808, 45.680349 ], [ -87.809075, 45.699717 ], [ -87.810144, 45.71023 ], [ -87.85548, 45.726943 ], [ -87.862211, 45.745018 ], [ -87.875813, 45.753888 ], [ -87.963452, 45.75822 ], [ -87.989656, 45.772025 ], [ -87.98087, 45.776977 ], [ -87.991447, 45.795393 ], [ -88.072091, 45.780261 ], [ -88.094047, 45.785658 ], [ -88.108331, 45.803465 ], [ -88.129461, 45.809288 ], [ -88.135067, 45.821694 ], [ -88.069885, 45.872717 ], [ -88.101814, 45.883504 ], [ -88.106624, 45.902213 ], [ -88.094968, 45.914669 ], [ -88.102908, 45.921869 ], [ -88.126382, 45.921499 ], [ -88.146163, 45.936794 ], [ -88.170096, 45.93947 ], [ -88.191991, 45.95274 ], [ -88.239941, 45.949362 ], [ -88.246346, 45.963389 ], [ -88.292381, 45.951115 ], [ -88.319698, 45.963626 ], [ -88.326953, 45.955071 ], [ -88.330137, 45.965951 ], [ -88.380183, 45.991654 ], [ -88.416914, 45.975323 ], [ -88.458658, 45.999391 ], [ -88.492495, 45.992157 ], [ -88.514601, 46.019926 ], [ -88.565485, 46.015708 ], [ -88.589, 46.005077 ], [ -88.60144, 46.017599 ], [ -88.616405, 45.9877 ], [ -88.670827, 45.988547 ], [ -88.663609, 45.992397 ], [ -88.679132, 46.013538 ], [ -88.718397, 46.013284 ], [ -88.724801, 46.024503 ], [ -88.739994, 46.027308 ], [ -88.758618, 46.019542 ], [ -88.770046, 46.025728 ], [ -88.780156, 46.015395 ], [ -88.778628, 46.031271 ], [ -88.796182, 46.033712 ], [ -88.79646, 46.023605 ], [ -88.816026, 46.020586 ], [ -89.09163, 46.138505 ], [ -90.120489, 46.336852 ], [ -90.118827, 46.359241 ], [ -90.157851, 46.409291 ], [ -90.16777, 46.442122 ], [ -90.17793, 46.440229 ], [ -90.178325, 46.457408 ], [ -90.190749, 46.460173 ], [ -90.188996, 46.469015 ], [ -90.204009, 46.478175 ], [ -90.216594, 46.501759 ], [ -90.230324, 46.501732 ], [ -90.231587, 46.509842 ], [ -90.272976, 46.505139 ], [ -90.277131, 46.524487 ], [ -90.316983, 46.517319 ], [ -90.310859, 46.539365 ], [ -90.331887, 46.553278 ], [ -90.344338, 46.552087 ], [ -90.339404, 46.549288 ], [ -90.350318, 46.540493 ], [ -90.39332, 46.532615 ], [ -90.418136, 46.566094 ], [ -90.33297, 46.608729 ], [ -90.306609, 46.602741 ], [ -90.164026, 46.645515 ], [ -90.027886, 46.673733 ], [ -89.91998, 46.737177 ], [ -89.849141, 46.795126 ], [ -89.788755, 46.818103 ], [ -89.673375, 46.833229 ], [ -89.619329, 46.81889 ], [ -89.513938, 46.841835 ], [ -89.425331, 46.841452 ], [ -89.227914, 46.912954 ], [ -89.17323, 46.963885 ], [ -89.128698, 46.992599 ], [ -89.07812, 46.985752 ], [ -89.02893, 47.00114 ], [ -89.016393, 46.99404 ], [ -88.972802, 47.002096 ], [ -88.933617, 47.030793 ], [ -88.88914, 47.100575 ], [ -88.845824, 47.114654 ], [ -88.814834, 47.141399 ], [ -88.761313, 47.15675 ], [ -88.729688, 47.185834 ], [ -88.672395, 47.219137 ], [ -88.577048, 47.244003 ], [ -88.50078, 47.293503 ], [ -88.420059, 47.371603 ], [ -88.285195, 47.422392 ], [ -88.239161, 47.429969 ], [ -88.218424, 47.441585 ], [ -88.218153, 47.449521 ], [ -87.975847, 47.480187 ], [ -87.878459, 47.475338 ], [ -87.902256, 47.472153 ], [ -87.875568, 47.467634 ], [ -87.847522, 47.469364 ], [ -87.856297, 47.476162 ], [ -87.801184, 47.473301 ], [ -87.719215, 47.442976 ], [ -87.712421, 47.4014 ], [ -87.75138, 47.405066 ], [ -87.76738, 47.393963 ], [ -87.815371, 47.38479 ], [ -87.8567, 47.395387 ], [ -87.957058, 47.38726 ], [ -87.965598, 47.368645 ], [ -87.938787, 47.346777 ], [ -87.94336, 47.335899 ], [ -87.968604, 47.332582 ], [ -88.016478, 47.306275 ], [ -88.06009, 47.295796 ], [ -88.096851, 47.261351 ], [ -88.117456, 47.255174 ], [ -88.166355, 47.215534 ], [ -88.212361, 47.209423 ], [ -88.228987, 47.199042 ], [ -88.242006, 47.174767 ], [ -88.24266, 47.158426 ], [ -88.232164, 47.145975 ], [ -88.247628, 47.135981 ], [ -88.257689, 47.144735 ], [ -88.277545, 47.140902 ], [ -88.28904, 47.129689 ], [ -88.297625, 47.098505 ], [ -88.349952, 47.076377 ], [ -88.367624, 47.019213 ], [ -88.41009, 46.97999 ], [ -88.431339, 46.975319 ], [ -88.438755, 46.981935 ], [ -88.446455, 46.970162 ], [ -88.455404, 46.923321 ], [ -88.475859, 46.886042 ], [ -88.484299, 46.832503 ], [ -88.462926, 46.786621 ], [ -88.482099, 46.782622 ], [ -88.49733, 46.755107 ], [ -88.476395, 46.749491 ], [ -88.450607, 46.76317 ], [ -88.433835, 46.793502 ], [ -88.38141, 46.838466 ], [ -88.389475, 46.851871 ], [ -88.404044, 46.847798 ], [ -88.389727, 46.8671 ], [ -88.372681, 46.872277 ], [ -88.375761, 46.861696 ], [ -88.35194, 46.857028 ], [ -88.244437, 46.929612 ], [ -88.142954, 46.966903 ], [ -88.129143, 46.962677 ], [ -88.144744, 46.956211 ], [ -88.160452, 46.936392 ], [ -88.234104, 46.894742 ], [ -88.283423, 46.822987 ], [ -88.254545, 46.839167 ], [ -88.232352, 46.872662 ], [ -88.211287, 46.884102 ], [ -88.215327, 46.891331 ], [ -88.184786, 46.904648 ], [ -88.08187, 46.920458 ], [ -87.998715, 46.905351 ], [ -87.901448, 46.909819 ], [ -87.846195, 46.883905 ], [ -87.816794, 46.891154 ], [ -87.803726, 46.881383 ], [ -87.780032, 46.878885 ], [ -87.771612, 46.863171 ], [ -87.741014, 46.865247 ], [ -87.727329, 46.825854 ], [ -87.69387, 46.826965 ], [ -87.680668, 46.842496 ], [ -87.667873, 46.817095 ], [ -87.6333, 46.812107 ], [ -87.607988, 46.788408 ], [ -87.590389, 46.782448 ], [ -87.595479, 46.774332 ], [ -87.582745, 46.730527 ], [ -87.540605, 46.696948 ], [ -87.520667, 46.691069 ], [ -87.524873, 46.676313 ], [ -87.503025, 46.647497 ], [ -87.462545, 46.635708 ], [ -87.464108, 46.614811 ], [ -87.43442, 46.591747 ], [ -87.40887, 46.594116 ], [ -87.395322, 46.584397 ], [ -87.37701, 46.590337 ], [ -87.392974, 46.572523 ], [ -87.374923, 46.546607 ], [ -87.3903, 46.542577 ], [ -87.393985, 46.533183 ], [ -87.35941, 46.503452 ], [ -87.258732, 46.488255 ], [ -87.202404, 46.490827 ], [ -87.166068, 46.506163 ], [ -87.151989, 46.49671 ], [ -87.116634, 46.494808 ], [ -87.080316, 46.517999 ], [ -87.046022, 46.519956 ], [ -87.019907, 46.528092 ], [ -87.019719, 46.535451 ], [ -87.005308, 46.533953 ], [ -86.964534, 46.516549 ], [ -86.943202, 46.481557 ], [ -86.947077, 46.472064 ], [ -86.903742, 46.466138 ], [ -86.889398, 46.458907 ], [ -86.886212, 46.444222 ], [ -86.875151, 46.43728 ], [ -86.816026, 46.437892 ], [ -86.808817, 46.460611 ], [ -86.789224, 46.478442 ], [ -86.750157, 46.479109 ], [ -86.731096, 46.47176 ], [ -86.70323, 46.439378 ], [ -86.655306, 46.442502 ], [ -86.652787, 46.431528 ], [ -86.662175, 46.418667 ], [ -86.644706, 46.410801 ], [ -86.607533, 46.443321 ], [ -86.608364, 46.452656 ], [ -86.595744, 46.452901 ], [ -86.551352, 46.495564 ], [ -86.495054, 46.524874 ], [ -86.467745, 46.552456 ], [ -86.443866, 46.547303 ], [ -86.34989, 46.578035 ], [ -86.161681, 46.669475 ], [ -86.138295, 46.672935 ], [ -86.119862, 46.657256 ], [ -86.087939, 46.65532 ], [ -85.877908, 46.690914 ], [ -85.750606, 46.677368 ], [ -85.500509, 46.676038 ], [ -85.25686, 46.75338 ], [ -85.157817, 46.765147 ], [ -85.063556, 46.757856 ], [ -84.956248, 46.771894 ], [ -84.950287, 46.768021 ], [ -85.007616, 46.728339 ], [ -85.030078, 46.684769 ], [ -85.037056, 46.600995 ], [ -85.025491, 46.546397 ], [ -85.056133, 46.52652 ], [ -85.049847, 46.503963 ], [ -85.015211, 46.479712 ], [ -84.964312, 46.476787 ], [ -84.935456, 46.489067 ], [ -84.921931, 46.469962 ], [ -84.861448, 46.46993 ], [ -84.843907, 46.448661 ], [ -84.817307, 46.444319 ], [ -84.769151, 46.453523 ], [ -84.678423, 46.487694 ], [ -84.63102, 46.484868 ], [ -84.573522, 46.427895 ], [ -84.586637, 46.431282 ], [ -84.591866, 46.441601 ], [ -84.602443, 46.437916 ], [ -84.599353, 46.418175 ], [ -84.583309, 46.413505 ], [ -84.510777, 46.433165 ], [ -84.500281, 46.446722 ], [ -84.482945, 46.433585 ], [ -84.471848, 46.434289 ], [ -84.455527, 46.453897 ], [ -84.463322, 46.467435 ], [ -84.445149, 46.489016 ], [ -84.420274, 46.501077 ], [ -84.341427, 46.507689 ], [ -84.275814, 46.492821 ], [ -84.254434, 46.500821 ], [ -84.226131, 46.53392 ], [ -84.19402, 46.540149 ], [ -84.177428, 46.52692 ], [ -84.128925, 46.530119 ], [ -84.111225, 46.504119 ], [ -84.146172, 46.41852 ], [ -84.138906, 46.372221 ], [ -84.106247, 46.321963 ], [ -84.119629, 46.315013 ], [ -84.115563, 46.268225 ], [ -84.097766, 46.256512 ], [ -84.108089, 46.241238 ], [ -84.146196, 46.230816 ], [ -84.153012, 46.215888 ], [ -84.151778, 46.228093 ], [ -84.175899, 46.245952 ], [ -84.183743, 46.245071 ], [ -84.186292, 46.234288 ], [ -84.188792, 46.243714 ], [ -84.212029, 46.24663 ], [ -84.213242, 46.231629 ], [ -84.257926, 46.218146 ], [ -84.273018, 46.201451 ], [ -84.252697, 46.186973 ], [ -84.24319, 46.191498 ], [ -84.251424, 46.175888 ], [ -84.221001, 46.163062 ], [ -84.196669, 46.16615 ], [ -84.18888, 46.178909 ], [ -84.181393, 46.173807 ], [ -84.179135, 46.185656 ], [ -84.16535, 46.17356 ], [ -84.152039, 46.181871 ], [ -84.132787, 46.169199 ], [ -84.133144, 46.176934 ], [ -84.122825, 46.178881 ], [ -84.095818, 46.147733 ], [ -84.060383, 46.146138 ], [ -84.029634, 46.134539 ], [ -84.031036, 46.123186 ], [ -84.0519, 46.11981 ], [ -84.071741, 46.092441 ], [ -84.032249, 46.06598 ], [ -84.01989, 46.048002 ], [ -83.981658, 46.03074 ], [ -83.977701, 46.019373 ], [ -83.966412, 46.019043 ], [ -83.958806, 46.02977 ], [ -83.93682, 46.030183 ], [ -83.93547, 46.020385 ], [ -83.908583, 46.011471 ], [ -83.895464, 45.986436 ], [ -83.907705, 45.978591 ], [ -83.911389, 45.971075 ], [ -83.905447, 45.967111 ], [ -83.913817, 45.955694 ], [ -83.921257, 45.958075 ], [ -83.913766, 45.96645 ], [ -83.978652, 45.96868 ], [ -83.996471, 45.961461 ], [ -83.995292, 45.94581 ], [ -84.027342, 45.961541 ], [ -84.091752, 45.966873 ], [ -84.098371, 45.974098 ], [ -84.100748, 45.967623 ], [ -84.117005, 45.983348 ], [ -84.149562, 45.9734 ], [ -84.182537, 45.981152 ], [ -84.170323, 45.965557 ], [ -84.180159, 45.975548 ], [ -84.199174, 45.979468 ], [ -84.198412, 45.972854 ], [ -84.216118, 45.985478 ], [ -84.223129, 45.980854 ], [ -84.214287, 45.969955 ], [ -84.267219, 45.990763 ], [ -84.273161, 45.986222 ], [ -84.258425, 45.957231 ], [ -84.294419, 45.953815 ], [ -84.30917, 45.963179 ], [ -84.322523, 45.955657 ], [ -84.355814, 45.958594 ], [ -84.345219, 45.945346 ], [ -84.355112, 45.939753 ], [ -84.391039, 45.949259 ], [ -84.381589, 45.933604 ], [ -84.434995, 45.961087 ], [ -84.420311, 45.95778 ], [ -84.412489, 45.979175 ], [ -84.428895, 45.993143 ], [ -84.4091, 45.982115 ], [ -84.392059, 45.985444 ], [ -84.422721, 46.002032 ], [ -84.465028, 46.005499 ], [ -84.463128, 45.968925 ], [ -84.481527, 45.977579 ], [ -84.484161, 45.993777 ], [ -84.50579, 45.997987 ], [ -84.516367, 45.990722 ], [ -84.509745, 45.982723 ], [ -84.514071, 45.971292 ], [ -84.532392, 45.969448 ], [ -84.533426, 46.00572 ], [ -84.544405, 46.02286 ], [ -84.563891, 46.032459 ], [ -84.581763, 46.03049 ], [ -84.582037, 46.022013 ], [ -84.609063, 46.026418 ], [ -84.656567, 46.052654 ], [ -84.675835, 46.046009 ], [ -84.690467, 46.027947 ], [ -84.6925, 46.016968 ], [ -84.683938, 46.005417 ], [ -84.694013, 45.985606 ], [ -84.685254, 45.973454 ], [ -84.723039, 45.967279 ], [ -84.740105, 45.941839 ], [ -84.713598, 45.91672 ], [ -84.736566, 45.912833 ], [ -84.720395, 45.874841 ], [ -84.729921, 45.8698 ], [ -84.702141, 45.850725 ], [ -84.745503, 45.847456 ], [ -84.752417, 45.839738 ], [ -84.803498, 45.870436 ], [ -84.831396, 45.872038 ], [ -84.839374, 45.89759 ], [ -84.874818, 45.909111 ], [ -84.888217, 45.924463 ], [ -84.913584, 45.925868 ], [ -84.9423, 45.9613 ], [ -85.01399, 46.010774 ], [ -85.093909, 46.027726 ], [ -85.140835, 46.049601 ], [ -85.165828, 46.047754 ], [ -85.180299, 46.061708 ], [ -85.189283, 46.06062 ], [ -85.19063, 46.047622 ], [ -85.195665, 46.045619 ], [ -85.197868, 46.053704 ], [ -85.260778, 46.062858 ], [ -85.335911, 46.092595 ], [ -85.36229, 46.090058 ], [ -85.37804, 46.074921 ], [ -85.390893, 46.093607 ], [ -85.412064, 46.101437 ], [ -85.441932, 46.095793 ], [ -85.448521, 46.08507 ], [ -85.50621, 46.096393 ], [ -85.540858, 46.079581 ], [ -85.592381, 46.037875 ], [ -85.658876, 45.965802 ], [ -85.696141, 45.959202 ], [ -85.740546, 45.963049 ], [ -85.810115, 45.980222 ], [ -85.840244, 45.96516 ], [ -85.894391, 45.966949 ], [ -85.923264, 45.947592 ], [ -85.926017, 45.932104 ], [ -85.913769, 45.919439 ], [ -85.998868, 45.950968 ], [ -86.072067, 45.965313 ], [ -86.123567, 45.964748 ], [ -86.150576, 45.953736 ], [ -86.208255, 45.962978 ], [ -86.233613, 45.945802 ], [ -86.275768, 45.943551 ], [ -86.2857, 45.926049 ], [ -86.306224, 45.921501 ], [ -86.324232, 45.90608 ], [ -86.335158, 45.866213 ], [ -86.327108, 45.855065 ], [ -86.349134, 45.83416 ], [ -86.345727, 45.821311 ], [ -86.355062, 45.805355 ], [ -86.346903, 45.797298 ], [ -86.372096, 45.787577 ], [ -86.390516, 45.795946 ], [ -86.39341, 45.789526 ], [ -86.415971, 45.793793 ], [ -86.428395, 45.786373 ], [ -86.425687, 45.77627 ], [ -86.436632, 45.761697 ], [ -86.446088, 45.765454 ], [ -86.457735, 45.757121 ], [ -86.478467, 45.763938 ], [ -86.486714, 45.747883 ], [ -86.508172, 45.753199 ], [ -86.532411, 45.746624 ], [ -86.533361, 45.739492 ], [ -86.521849, 45.733307 ], [ -86.533005, 45.729289 ], [ -86.524827, 45.719473 ], [ -86.537258, 45.708361 ], [ -86.570627, 45.716412 ], [ -86.580936, 45.71192 ], [ -86.582473, 45.685389 ], [ -86.591255, 45.67959 ], [ -86.587528, 45.666456 ], [ -86.611306, 45.669733 ], [ -86.62744, 45.659876 ], [ -86.61764, 45.61878 ], [ -86.60526, 45.607756 ], [ -86.614266, 45.600121 ], [ -86.633224, 45.618249 ], [ -86.650208, 45.61607 ], [ -86.677491, 45.627575 ], [ -86.697598, 45.655659 ], [ -86.708082, 45.648049 ], [ -86.717512, 45.680291 ], [ -86.705184, 45.690901 ], [ -86.676184, 45.691862 ], [ -86.664723, 45.705815 ], [ -86.671553, 45.720847 ], [ -86.647021, 45.729731 ], [ -86.632117, 45.755746 ], [ -86.623561, 45.751019 ], [ -86.620471, 45.762213 ], [ -86.636965, 45.764738 ], [ -86.623561, 45.772244 ], [ -86.631096, 45.782116 ], [ -86.617336, 45.783538 ], [ -86.604309, 45.771746 ], [ -86.586345, 45.7788 ], [ -86.559625, 45.772244 ], [ -86.581759, 45.794797 ], [ -86.557215, 45.808172 ], [ -86.557542, 45.828316 ], [ -86.528014, 45.853254 ], [ -86.535206, 45.885805 ], [ -86.559498, 45.899249 ], [ -86.582323, 45.896113 ], [ -86.598874, 45.876576 ], [ -86.624403, 45.869782 ], [ -86.633168, 45.860068 ], [ -86.632478, 45.843309 ], [ -86.644358, 45.842989 ], [ -86.647567, 45.83355 ], [ -86.699031, 45.843369 ], [ -86.719227, 45.839429 ], [ -86.749638, 45.867796 ], [ -86.78208, 45.860195 ], [ -86.788109, 45.835608 ], [ -86.774612, 45.821696 ], [ -86.779003, 45.799177 ], [ -86.769377, 45.797437 ], [ -86.806455, 45.787743 ], [ -86.789461, 45.771829 ], [ -86.804083, 45.776626 ], [ -86.821523, 45.770356 ], [ -86.820835, 45.756078 ], [ -86.84517, 45.73681 ], [ -86.842677, 45.719684 ], [ -86.8664, 45.710231 ], [ -86.903302, 45.709066 ], [ -86.918262, 45.696101 ], [ -86.941458, 45.702156 ], [ -86.967855, 45.668261 ], [ -86.969765, 45.691895 ], [ -86.980885, 45.695057 ], [ -86.984588, 45.705812 ], [ -86.975201, 45.748909 ], [ -86.983595, 45.769374 ], [ -86.981624, 45.792221 ], [ -87.005522, 45.828798 ], [ -86.987686, 45.836531 ], [ -86.948231, 45.876756 ], [ -86.949895, 45.898925 ], [ -86.977941, 45.905623 ], [ -86.986498, 45.896774 ], [ -86.97913, 45.894045 ], [ -87.022038, 45.860077 ], [ -86.998983, 45.847744 ], [ -87.039842, 45.834245 ], [ -87.057439, 45.812483 ], [ -87.056376, 45.775854 ], [ -87.064302, 45.758828 ], [ -87.0382, 45.741519 ], [ -87.057444, 45.736822 ], [ -87.084811, 45.709162 ], [ -87.064248, 45.707749 ], [ -87.095455, 45.701039 ], [ -87.100441, 45.686817 ], [ -87.166089, 45.665468 ], [ -87.197295, 45.638703 ], [ -87.239322, 45.576127 ], [ -87.260517, 45.556969 ], [ -87.306967, 45.473364 ], [ -87.333147, 45.447208 ], [ -87.327749, 45.425307 ], [ -87.392143, 45.369394 ], [ -87.395725, 45.349527 ], [ -87.409952, 45.34234 ], [ -87.407989, 45.332887 ], [ -87.431684, 45.316383 ], [ -87.436544, 45.294046 ], [ -87.465201, 45.273351 ], [ -87.539748, 45.19415 ], [ -87.563417, 45.18407 ], [ -87.599814, 45.150474 ], [ -87.595912, 45.139161 ], [ -87.607183, 45.135522 ], [ -87.612019, 45.123377 ], [ -87.592192, 45.094762 ], [ -87.659952, 45.107512 ], [ -87.683902, 45.144135 ], [ -87.736509, 45.173389 ], [ -87.741732, 45.198201 ], [ -87.726198, 45.209391 ], [ -87.725205, 45.231539 ], [ -87.711339, 45.239965 ], [ -87.71045, 45.259324 ], [ -87.687498, 45.298055 ], [ -87.648126, 45.339396 ], [ -87.657349, 45.368752 ], [ -87.693956, 45.389893 ], [ -87.754104, 45.349442 ], [ -87.832612, 45.352249 ], [ -87.850133, 45.340435 ], [ -87.870238, 45.366436 ], [ -87.875797, 45.365314 ], [ -87.870367, 45.356267 ], [ -87.886949, 45.35311 ] ] ], [ [ [ -87.402633, 46.595545 ], [ -87.399295, 46.594726 ], [ -87.403831, 46.593672 ], [ -87.402633, 46.595545 ] ] ], [ [ [ -87.420134, 46.602974 ], [ -87.410079, 46.602718 ], [ -87.417647, 46.597763 ], [ -87.420134, 46.602974 ] ] ], [ [ [ -87.460455, 46.639139 ], [ -87.457162, 46.638101 ], [ -87.461258, 46.636283 ], [ -87.460455, 46.639139 ] ] ], [ [ [ -87.54226, 46.704608 ], [ -87.539046, 46.704703 ], [ -87.542635, 46.703766 ], [ -87.54226, 46.704608 ] ] ], [ [ [ -87.955457, 46.949487 ], [ -87.959092, 46.950504 ], [ -87.956543, 46.951606 ], [ -87.955457, 46.949487 ] ] ], [ [ [ -87.963634, 46.951313 ], [ -87.971887, 46.9504 ], [ -87.978258, 46.954314 ], [ -87.963634, 46.951313 ] ] ], [ [ [ -88.003849, 46.96627 ], [ -87.998357, 46.958709 ], [ -88.005423, 46.965764 ], [ -88.003849, 46.96627 ] ] ], [ [ [ -88.274086, 47.074909 ], [ -88.268708, 47.069809 ], [ -88.276076, 47.071631 ], [ -88.274086, 47.074909 ] ] ], [ [ [ -87.652303, 47.41621 ], [ -87.623673, 47.426283 ], [ -87.586224, 47.418336 ], [ -87.600342, 47.407711 ], [ -87.652303, 47.41621 ] ] ], [ [ [ -88.850642, 47.913923 ], [ -88.845059, 47.915241 ], [ -88.851267, 47.911493 ], [ -88.850642, 47.913923 ] ] ], [ [ [ -88.812898, 47.930728 ], [ -88.78231, 47.940723 ], [ -88.818355, 47.928058 ], [ -88.812898, 47.930728 ] ] ], [ [ [ -89.2628, 47.869864 ], [ -89.224117, 47.88025 ], [ -89.216987, 47.892204 ], [ -89.247127, 47.888503 ], [ -89.226327, 47.895438 ], [ -89.220716, 47.910989 ], [ -89.179154, 47.93503 ], [ -88.994163, 48.00229 ], [ -88.905274, 48.025377 ], [ -88.835806, 48.057101 ], [ -88.849178, 48.0441 ], [ -88.787556, 48.063035 ], [ -88.764256, 48.085189 ], [ -88.684434, 48.115785 ], [ -88.666521, 48.135626 ], [ -88.632712, 48.148584 ], [ -88.547033, 48.174891 ], [ -88.524753, 48.165291 ], [ -88.501088, 48.168181 ], [ -88.482039, 48.179915 ], [ -88.422601, 48.190975 ], [ -88.418244, 48.18037 ], [ -88.419875, 48.170731 ], [ -88.446192, 48.155212 ], [ -88.566938, 48.093719 ], [ -88.576712, 48.084999 ], [ -88.574672, 48.062862 ], [ -88.585889, 48.054268 ], [ -88.670073, 48.011446 ], [ -88.757165, 47.9833 ], [ -88.899184, 47.9533 ], [ -88.924641, 47.943257 ], [ -88.924486, 47.936707 ], [ -89.003075, 47.908537 ], [ -88.997414, 47.900673 ], [ -89.005095, 47.898658 ], [ -89.000936, 47.89061 ], [ -88.950429, 47.89053 ], [ -88.899698, 47.902445 ], [ -88.911665, 47.891344 ], [ -89.080283, 47.845337 ], [ -89.119164, 47.827729 ], [ -89.162048, 47.823564 ], [ -89.19017, 47.831603 ], [ -89.201812, 47.850243 ], [ -89.234533, 47.851718 ], [ -89.200944, 47.884952 ], [ -89.2628, 47.869864 ] ] ], [ [ [ -88.734053, 48.100655 ], [ -88.705494, 48.111175 ], [ -88.721218, 48.103944 ], [ -88.734053, 48.100655 ] ] ], [ [ [ -88.336342, 48.237138 ], [ -88.349893, 48.23152 ], [ -88.367788, 48.222952 ], [ -88.352504, 48.235476 ], [ -88.336342, 48.237138 ] ] ], [ [ [ -86.771458, 45.51062 ], [ -86.757548, 45.504123 ], [ -86.759989, 45.477867 ], [ -86.783532, 45.488301 ], [ -86.783459, 45.506233 ], [ -86.771458, 45.51062 ] ] ], [ [ [ -86.713894, 45.499798 ], [ -86.716137, 45.497779 ], [ -86.716947, 45.501153 ], [ -86.713894, 45.499798 ] ] ], [ [ [ -86.721115, 45.509139 ], [ -86.720653, 45.511521 ], [ -86.716693, 45.509483 ], [ -86.721115, 45.509139 ] ] ], [ [ [ -86.725091, 45.521734 ], [ -86.723092, 45.520525 ], [ -86.72738, 45.521466 ], [ -86.725091, 45.521734 ] ] ], [ [ [ -86.662257, 45.520983 ], [ -86.669964, 45.527111 ], [ -86.667848, 45.531752 ], [ -86.661179, 45.532962 ], [ -86.662257, 45.520983 ] ] ], [ [ [ -86.654935, 45.587171 ], [ -86.622155, 45.56363 ], [ -86.627495, 45.549456 ], [ -86.641068, 45.543015 ], [ -86.648909, 45.544344 ], [ -86.660315, 45.573839 ], [ -86.654935, 45.587171 ] ] ], [ [ [ -86.701758, 45.616604 ], [ -86.677269, 45.613689 ], [ -86.667888, 45.606047 ], [ -86.690169, 45.595721 ], [ -86.702351, 45.604315 ], [ -86.701758, 45.616604 ] ] ], [ [ [ -86.705204, 45.610619 ], [ -86.71069, 45.608246 ], [ -86.712453, 45.608873 ], [ -86.705204, 45.610619 ] ] ], [ [ [ -86.656717, 45.739741 ], [ -86.660311, 45.736005 ], [ -86.657074, 45.742643 ], [ -86.656717, 45.739741 ] ] ], [ [ [ -86.760821, 45.743805 ], [ -86.765456, 45.74878 ], [ -86.759276, 45.745463 ], [ -86.760821, 45.743805 ] ] ], [ [ [ -86.755711, 45.800172 ], [ -86.758801, 45.796692 ], [ -86.762722, 45.800917 ], [ -86.755711, 45.800172 ] ] ], [ [ [ -84.751049, 45.83471 ], [ -84.74539, 45.839331 ], [ -84.744091, 45.836633 ], [ -84.751049, 45.83471 ] ] ], [ [ [ -84.861969, 45.860214 ], [ -84.868987, 45.854951 ], [ -84.880387, 45.86532 ], [ -84.873844, 45.866712 ], [ -84.861969, 45.860214 ] ] ], [ [ [ -85.204774, 46.044412 ], [ -85.199544, 46.044222 ], [ -85.204798, 46.044015 ], [ -85.204774, 46.044412 ] ] ], [ [ [ -86.719323, 46.479033 ], [ -86.722451, 46.485805 ], [ -86.716742, 46.478599 ], [ -86.719323, 46.479033 ] ] ], [ [ [ -86.893403, 46.488467 ], [ -86.893079, 46.480306 ], [ -86.899956, 46.48783 ], [ -86.893403, 46.488467 ] ] ], [ [ [ -86.690286, 46.556564 ], [ -86.653355, 46.560698 ], [ -86.626329, 46.534903 ], [ -86.646798, 46.487497 ], [ -86.628223, 46.477781 ], [ -86.608893, 46.492564 ], [ -86.607932, 46.472176 ], [ -86.623077, 46.456504 ], [ -86.640784, 46.454375 ], [ -86.647795, 46.462562 ], [ -86.638882, 46.472384 ], [ -86.659917, 46.470256 ], [ -86.671682, 46.450609 ], [ -86.687595, 46.456228 ], [ -86.683811, 46.497726 ], [ -86.699028, 46.506668 ], [ -86.709463, 46.541851 ], [ -86.690286, 46.556564 ] ] ], [ [ [ -86.736818, 46.504953 ], [ -86.744167, 46.505292 ], [ -86.748185, 46.5156 ], [ -86.737287, 46.511148 ], [ -86.736818, 46.504953 ] ] ], [ [ [ -84.573729, 45.819442 ], [ -84.538048, 45.807855 ], [ -84.502687, 45.810323 ], [ -84.433724, 45.78671 ], [ -84.421321, 45.792701 ], [ -84.427444, 45.811333 ], [ -84.420326, 45.811317 ], [ -84.404335, 45.78525 ], [ -84.355945, 45.770691 ], [ -84.371741, 45.745517 ], [ -84.391161, 45.739404 ], [ -84.393586, 45.728073 ], [ -84.405717, 45.722259 ], [ -84.481421, 45.730052 ], [ -84.500785, 45.737227 ], [ -84.508682, 45.75401 ], [ -84.52524, 45.761691 ], [ -84.549951, 45.790073 ], [ -84.588455, 45.807449 ], [ -84.58905, 45.816372 ], [ -84.573729, 45.819442 ] ] ], [ [ [ -84.589247, 45.826059 ], [ -84.607343, 45.825624 ], [ -84.61194, 45.833944 ], [ -84.600517, 45.833919 ], [ -84.589247, 45.826059 ] ] ], [ [ [ -84.647474, 45.856868 ], [ -84.646221, 45.885216 ], [ -84.629116, 45.88222 ], [ -84.603171, 45.850186 ], [ -84.619789, 45.845548 ], [ -84.647474, 45.856868 ] ] ], [ [ [ -84.427919, 45.920662 ], [ -84.433808, 45.925757 ], [ -84.432949, 45.926734 ], [ -84.427919, 45.920662 ] ] ], [ [ [ -84.561909, 45.963469 ], [ -84.56795, 45.952484 ], [ -84.582692, 45.96312 ], [ -84.574955, 45.970654 ], [ -84.561909, 45.963469 ] ] ], [ [ [ -84.629695, 45.97946 ], [ -84.608783, 45.967471 ], [ -84.631575, 45.95535 ], [ -84.640179, 45.958369 ], [ -84.64162, 45.972901 ], [ -84.629695, 45.97946 ] ] ], [ [ [ -84.201157, 45.966921 ], [ -84.20195, 45.970356 ], [ -84.199237, 45.969148 ], [ -84.201157, 45.966921 ] ] ], [ [ [ -84.437244, 45.980269 ], [ -84.422041, 45.974696 ], [ -84.422224, 45.973202 ], [ -84.437244, 45.980269 ] ] ], [ [ [ -83.89998, 46.017805 ], [ -83.897128, 46.017062 ], [ -83.900931, 46.016237 ], [ -83.89998, 46.017805 ] ] ], [ [ [ -83.855059, 46.053528 ], [ -83.852563, 46.058888 ], [ -83.84674, 46.053858 ], [ -83.847809, 46.052208 ], [ -83.855059, 46.053528 ] ] ], [ [ [ -83.877876, 46.055425 ], [ -83.881322, 46.055919 ], [ -83.878708, 46.057981 ], [ -83.877876, 46.055425 ] ] ], [ [ [ -83.876806, 46.064825 ], [ -83.884056, 46.064825 ], [ -83.885244, 46.069278 ], [ -83.87954, 46.072411 ], [ -83.876806, 46.064825 ] ] ], [ [ [ -83.869319, 46.076203 ], [ -83.852563, 46.075214 ], [ -83.859337, 46.06936 ], [ -83.869319, 46.076203 ] ] ], [ [ [ -84.003371, 46.095326 ], [ -83.98911, 46.089474 ], [ -83.97345, 46.065285 ], [ -84.012634, 46.08728 ], [ -84.003371, 46.095326 ] ] ], [ [ [ -83.851018, 46.081726 ], [ -83.854227, 46.079995 ], [ -83.856247, 46.084776 ], [ -83.851018, 46.081726 ] ] ], [ [ [ -83.987803, 46.091287 ], [ -83.984, 46.090546 ], [ -83.983643, 46.08865 ], [ -83.987803, 46.091287 ] ] ], [ [ [ -83.987684, 46.098292 ], [ -83.99113, 46.100847 ], [ -83.990417, 46.103154 ], [ -83.987684, 46.098292 ] ] ], [ [ [ -84.023217, 46.109334 ], [ -84.019652, 46.109169 ], [ -84.020365, 46.107686 ], [ -84.023217, 46.109334 ] ] ], [ [ [ -84.168412, 46.215517 ], [ -84.169844, 46.219355 ], [ -84.166048, 46.215331 ], [ -84.168412, 46.215517 ] ] ], [ [ [ -84.515739, 46.443651 ], [ -84.514063, 46.441714 ], [ -84.516926, 46.442273 ], [ -84.515739, 46.443651 ] ] ], [ [ [ -84.68383, 46.491514 ], [ -84.681329, 46.493755 ], [ -84.679057, 46.493421 ], [ -84.681902, 46.491037 ], [ -84.68383, 46.491514 ] ] ], [ [ [ -83.769375, 45.934887 ], [ -83.766879, 45.93687 ], [ -83.768552, 45.931753 ], [ -83.769375, 45.934887 ] ] ], [ [ [ -83.791955, 46.007241 ], [ -83.79041, 46.009222 ], [ -83.789697, 46.007241 ], [ -83.791955, 46.007241 ] ] ], [ [ [ -83.878114, 45.989079 ], [ -83.845076, 46.026552 ], [ -83.83034, 46.023994 ], [ -83.825111, 46.016237 ], [ -83.834618, 46.008727 ], [ -83.82416, 46.00171 ], [ -83.830102, 45.996922 ], [ -83.817149, 46.003031 ], [ -83.826418, 45.99395 ], [ -83.806097, 45.983876 ], [ -83.788389, 46.001793 ], [ -83.779001, 45.999812 ], [ -83.774248, 46.008479 ], [ -83.780665, 46.013018 ], [ -83.773535, 46.010377 ], [ -83.76581, 46.026387 ], [ -83.73812, 46.023994 ], [ -83.711777, 46.040279 ], [ -83.688802, 46.035628 ], [ -83.690465, 46.05361 ], [ -83.671689, 46.05493 ], [ -83.675729, 46.070844 ], [ -83.721483, 46.080737 ], [ -83.732178, 46.086919 ], [ -83.729207, 46.091535 ], [ -83.719788, 46.101032 ], [ -83.700111, 46.103867 ], [ -83.634979, 46.103954 ], [ -83.581314, 46.089615 ], [ -83.572571, 46.069897 ], [ -83.547203, 46.047867 ], [ -83.534429, 46.007654 ], [ -83.519344, 46.008699 ], [ -83.506382, 45.995188 ], [ -83.48835, 45.999542 ], [ -83.473221, 45.984421 ], [ -83.499782, 45.959937 ], [ -83.498271, 45.949556 ], [ -83.51332, 45.936809 ], [ -83.515824, 45.923617 ], [ -83.528312, 45.917769 ], [ -83.543223, 45.928687 ], [ -83.540965, 45.92009 ], [ -83.550267, 45.91439 ], [ -83.567585, 45.92257 ], [ -83.565084, 45.912599 ], [ -83.572101, 45.920255 ], [ -83.582273, 45.915685 ], [ -83.608463, 45.926076 ], [ -83.606446, 45.940672 ], [ -83.630967, 45.929001 ], [ -83.631996, 45.937449 ], [ -83.620588, 45.944556 ], [ -83.632947, 45.957363 ], [ -83.638176, 45.952571 ], [ -83.631877, 45.943812 ], [ -83.639364, 45.939515 ], [ -83.644474, 45.947778 ], [ -83.687691, 45.93539 ], [ -83.699141, 45.942325 ], [ -83.715668, 45.930108 ], [ -83.727068, 45.946704 ], [ -83.741208, 45.937295 ], [ -83.757016, 45.954636 ], [ -83.77603, 45.949844 ], [ -83.786168, 45.932924 ], [ -83.801979, 45.936611 ], [ -83.817862, 45.954223 ], [ -83.836524, 45.938178 ], [ -83.829152, 45.947365 ], [ -83.84613, 45.95242 ], [ -83.849117, 45.962815 ], [ -83.881899, 45.964104 ], [ -83.878114, 45.989079 ] ] ], [ [ [ -83.825468, 46.028533 ], [ -83.822853, 46.029358 ], [ -83.823923, 46.0268 ], [ -83.825468, 46.028533 ] ] ], [ [ [ -83.791004, 46.035381 ], [ -83.793618, 46.036206 ], [ -83.790766, 46.038433 ], [ -83.791004, 46.035381 ] ] ], [ [ [ -83.733485, 46.035876 ], [ -83.733485, 46.038103 ], [ -83.732654, 46.038268 ], [ -83.733485, 46.035876 ] ] ], [ [ [ -83.829033, 46.037526 ], [ -83.827725, 46.03967 ], [ -83.827607, 46.035463 ], [ -83.829033, 46.037526 ] ] ], [ [ [ -83.725167, 46.037443 ], [ -83.728851, 46.040743 ], [ -83.725523, 46.040578 ], [ -83.725167, 46.037443 ] ] ], [ [ [ -83.83652, 46.04297 ], [ -83.837352, 46.045362 ], [ -83.835807, 46.04561 ], [ -83.83652, 46.04297 ] ] ], [ [ [ -83.722671, 46.050806 ], [ -83.720413, 46.044042 ], [ -83.728375, 46.044455 ], [ -83.722671, 46.050806 ] ] ], [ [ [ -83.75963, 46.064578 ], [ -83.734912, 46.05361 ], [ -83.747226, 46.034778 ], [ -83.768068, 46.050641 ], [ -83.773178, 46.047342 ], [ -83.75963, 46.064578 ] ] ], [ [ [ -83.709242, 46.053198 ], [ -83.701399, 46.048909 ], [ -83.710074, 46.050888 ], [ -83.709242, 46.053198 ] ] ], [ [ [ -83.827369, 46.055095 ], [ -83.826537, 46.058393 ], [ -83.825824, 46.058228 ], [ -83.827369, 46.055095 ] ] ], [ [ [ -83.690228, 46.059713 ], [ -83.696289, 46.056002 ], [ -83.693912, 46.061939 ], [ -83.690228, 46.059713 ] ] ], [ [ [ -83.796708, 46.060373 ], [ -83.798966, 46.057734 ], [ -83.797659, 46.061032 ], [ -83.796708, 46.060373 ] ] ], [ [ [ -83.793856, 46.061774 ], [ -83.791836, 46.062599 ], [ -83.793618, 46.061032 ], [ -83.793856, 46.061774 ] ] ], [ [ [ -83.699735, 46.066969 ], [ -83.705083, 46.064248 ], [ -83.700686, 46.068371 ], [ -83.699735, 46.066969 ] ] ], [ [ [ -83.770801, 46.069113 ], [ -83.77401, 46.064331 ], [ -83.774248, 46.066474 ], [ -83.770801, 46.069113 ] ] ], [ [ [ -83.850543, 46.065815 ], [ -83.841392, 46.067794 ], [ -83.844601, 46.063424 ], [ -83.850543, 46.065815 ] ] ], [ [ [ -83.810613, 46.07406 ], [ -83.813227, 46.074554 ], [ -83.809424, 46.078017 ], [ -83.810613, 46.07406 ] ] ], [ [ [ -83.781259, 46.085023 ], [ -83.782566, 46.080325 ], [ -83.783992, 46.079995 ], [ -83.781259, 46.085023 ] ] ], [ [ [ -83.769732, 46.088568 ], [ -83.765097, 46.092194 ], [ -83.761651, 46.088897 ], [ -83.762465, 46.086318 ], [ -83.769732, 46.088568 ] ] ], [ [ [ -83.828201, 46.10027 ], [ -83.814891, 46.108922 ], [ -83.791955, 46.107027 ], [ -83.776506, 46.092029 ], [ -83.803126, 46.092524 ], [ -83.805384, 46.100847 ], [ -83.820357, 46.092029 ], [ -83.828201, 46.10027 ] ] ] ] } },
{ "type": "Feature", "properties": { "region_number": 2, "region_name": "Northwest Prosperity Region" }, "geometry": { "type": "MultiPolygon", "coordinates": [ [ [ [ -84.851705, 44.161375 ], [ -85.940375, 44.164934 ], [ -86.388798936537398, 44.1786884726775 ], [ -86.26871, 44.345324 ], [ -86.251926, 44.400984 ], [ -86.248914, 44.483004 ], [ -86.220399, 44.56817 ], [ -86.22545, 44.59459 ], [ -86.259029, 44.663654 ], [ -86.254996, 44.691935 ], [ -86.156641, 44.731656 ], [ -86.121125, 44.727972 ], [ -86.089564, 44.741984 ], [ -86.074872, 44.766233 ], [ -86.078592, 44.794393 ], [ -86.066514, 44.819869 ], [ -86.072468, 44.884788 ], [ -86.066745, 44.905685 ], [ -86.043808, 44.914729 ], [ -86.009355, 44.899454 ], [ -85.985218, 44.902933 ], [ -85.9316, 44.968788 ], [ -85.897626, 44.962014 ], [ -85.869852, 44.939031 ], [ -85.807403, 44.949814 ], [ -85.780439, 44.977932 ], [ -85.780042, 45.009625 ], [ -85.762945, 45.0226 ], [ -85.744577, 45.05339 ], [ -85.703307, 45.070992 ], [ -85.681096, 45.092693 ], [ -85.656024, 45.145788 ], [ -85.618361, 45.18702 ], [ -85.606963, 45.178477 ], [ -85.585986, 45.180381 ], [ -85.551072, 45.210742 ], [ -85.540748, 45.210906 ], [ -85.526734, 45.189316 ], [ -85.531461, 45.177247 ], [ -85.56168, 45.15894 ], [ -85.554083, 45.142568 ], [ -85.561852, 45.143393 ], [ -85.558373, 45.133209 ], [ -85.573893, 45.155488 ], [ -85.599801, 45.149286 ], [ -85.614319, 45.127562 ], [ -85.583707, 45.068486 ], [ -85.566179, 45.058866 ], [ -85.566505, 45.043991 ], [ -85.588994, 45.054714 ], [ -85.599652, 45.021749 ], [ -85.633847, 44.999689 ], [ -85.649476, 44.974589 ], [ -85.629506, 44.966719 ], [ -85.606009, 44.990825 ], [ -85.599389, 44.989175 ], [ -85.600982, 44.92501 ], [ -85.624648, 44.922139 ], [ -85.645456, 44.883645 ], [ -85.652355, 44.849092 ], [ -85.651435, 44.831624 ], [ -85.633263, 44.800437 ], [ -85.638884, 44.772335 ], [ -85.595436, 44.767111 ], [ -85.579089, 44.817725 ], [ -85.548908, 44.863209 ], [ -85.532931, 44.87319 ], [ -85.524751, 44.896124 ], [ -85.546442, 44.901551 ], [ -85.557135, 44.88756 ], [ -85.564509, 44.895246 ], [ -85.533553, 44.925762 ], [ -85.520034, 44.973996 ], [ -85.474937, 44.991721 ], [ -85.464944, 44.961062 ], [ -85.487459, 44.958939 ], [ -85.488624, 44.901707 ], [ -85.499745, 44.856088 ], [ -85.555894, 44.818256 ], [ -85.559641, 44.785937 ], [ -85.576566, 44.760208 ], [ -85.554326, 44.748744 ], [ -85.527192, 44.7475 ], [ -85.504775, 44.768082 ], [ -85.507367, 44.795363 ], [ -85.462916, 44.825067 ], [ -85.389256, 44.948057 ], [ -85.37588, 45.00329 ], [ -85.380317, 45.045789 ], [ -85.36657, 45.068355 ], [ -85.36349, 45.111624 ], [ -85.380965, 45.145559 ], [ -85.378752, 45.169846 ], [ -85.389916, 45.217245 ], [ -85.371593, 45.270834 ], [ -85.312821, 45.306097 ], [ -85.300693, 45.321283 ], [ -85.289568, 45.314052 ], [ -85.262996, 45.319507 ], [ -85.249787, 45.339689 ], [ -85.235629, 45.339374 ], [ -85.203616, 45.361887 ], [ -85.137942, 45.373488 ], [ -85.037772, 45.362091 ], [ -84.960586, 45.375813 ], [ -84.914543, 45.395623 ], [ -84.912956, 45.409776 ], [ -84.922006, 45.421914 ], [ -84.990865, 45.42812 ], [ -84.976717, 45.419338 ], [ -84.985131, 45.419287 ], [ -85.03695, 45.434902 ], [ -85.06247, 45.451289 ], [ -85.093725, 45.481564 ], [ -85.115479, 45.539406 ], [ -85.116914, 45.579649 ], [ -85.070333, 45.633952 ], [ -85.007026, 45.65636 ], [ -84.992958, 45.679983 ], [ -84.975768, 45.683174 ], [ -84.943756, 45.71029 ], [ -84.940442, 45.725391 ], [ -84.957946, 45.743385 ], [ -85.0141, 45.759545 ], [ -84.938312, 45.759892 ], [ -84.905596, 45.746362 ], [ -84.882756, 45.756525 ], [ -84.840981, 45.744751 ], [ -84.825425, 45.752725 ], [ -84.807907, 45.744918 ], [ -84.78852, 45.752069 ], [ -84.778933, 45.766115 ], [ -84.791643, 45.782038 ], [ -84.772765, 45.789301 ], [ -84.751571, 45.782733 ], [ -84.732398150633401, 45.788209489903799 ], [ -84.734799, 45.114903 ], [ -84.857452, 45.116707 ], [ -84.847309, 44.858037 ], [ -84.855795, 44.421984 ], [ -84.851705, 44.161375 ] ] ], [ [ [ -85.569891, 44.872323 ], [ -85.570643, 44.86452 ], [ -85.583755, 44.861454 ], [ -85.581207, 44.869938 ], [ -85.569891, 44.872323 ] ] ], [ [ [ -86.127876, 45.045979 ], [ -86.090168, 45.04145 ], [ -86.077616, 45.030803 ], [ -86.097094, 45.030128 ], [ -86.101214, 45.018101 ], [ -86.092235, 45.010129 ], [ -86.106795, 45.00217 ], [ -86.134832, 44.996963 ], [ -86.154326, 45.002731 ], [ -86.154557, 45.018102 ], [ -86.141644, 45.040251 ], [ -86.127876, 45.045979 ] ] ], [ [ [ -86.050473, 45.158418 ], [ -85.993194, 45.152805 ], [ -85.976803, 45.138363 ], [ -85.984095, 45.087073 ], [ -85.960879, 45.060508 ], [ -86.007527, 45.057172 ], [ -86.058653, 45.100776 ], [ -86.064483, 45.139601 ], [ -86.050473, 45.158418 ] ] ], [ [ [ -85.827783, 45.393264 ], [ -85.838716, 45.377155 ], [ -85.884707, 45.444814 ], [ -85.852073, 45.436947 ], [ -85.831967, 45.42048 ], [ -85.827783, 45.393264 ] ] ], [ [ [ -85.782646, 45.491596 ], [ -85.766838, 45.475788 ], [ -85.771572, 45.460571 ], [ -85.792961, 45.481976 ], [ -85.782646, 45.491596 ] ] ], [ [ [ -85.838996, 45.710154 ], [ -85.83335, 45.70239 ], [ -85.84192, 45.69234 ], [ -85.844023, 45.694828 ], [ -85.838996, 45.710154 ] ] ], [ [ [ -85.693282, 45.744469 ], [ -85.644893, 45.742702 ], [ -85.655118, 45.738244 ], [ -85.654823, 45.715882 ], [ -85.675092, 45.697236 ], [ -85.697581, 45.697649 ], [ -85.696435, 45.712585 ], [ -85.68734, 45.716803 ], [ -85.701101, 45.737988 ], [ -85.693282, 45.744469 ] ] ], [ [ [ -85.684075, 45.770125 ], [ -85.693102, 45.770887 ], [ -85.696259, 45.774391 ], [ -85.688192, 45.775061 ], [ -85.684075, 45.770125 ] ] ], [ [ [ -85.604309, 45.811824 ], [ -85.611124, 45.807376 ], [ -85.617538, 45.810776 ], [ -85.604309, 45.811824 ] ] ], [ [ [ -85.59122, 45.840068 ], [ -85.589179, 45.83331 ], [ -85.594489, 45.83768 ], [ -85.59122, 45.840068 ] ] ], [ [ [ -85.568057, 45.099454 ], [ -85.566724, 45.100673 ], [ -85.566065, 45.099105 ], [ -85.568057, 45.099454 ] ] ], [ [ [ -85.625977, 45.601586 ], [ -85.603851, 45.640082 ], [ -85.60347, 45.68206 ], [ -85.571781, 45.711424 ], [ -85.572395, 45.727671 ], [ -85.562163, 45.735453 ], [ -85.567991, 45.758579 ], [ -85.53562, 45.750394 ], [ -85.501267, 45.754415 ], [ -85.499455, 45.744344 ], [ -85.515145, 45.749451 ], [ -85.521911, 45.739419 ], [ -85.498777, 45.726291 ], [ -85.494016, 45.698476 ], [ -85.506104, 45.681148 ], [ -85.487333, 45.63735 ], [ -85.491727, 45.607527 ], [ -85.530273, 45.589253 ], [ -85.534064, 45.578198 ], [ -85.560658, 45.571584 ], [ -85.619877, 45.582884 ], [ -85.625977, 45.601586 ] ] ], [ [ [ -85.019584, 45.764219 ], [ -85.023873, 45.760744 ], [ -85.03905, 45.764318 ], [ -85.026999, 45.766109 ], [ -85.019584, 45.764219 ] ] ], [ [ [ -85.074442, 45.76589 ], [ -85.055172, 45.7644 ], [ -85.074943, 45.764583 ], [ -85.074442, 45.76589 ] ] ], [ [ [ -85.394765, 45.777136 ], [ -85.365904, 45.798894 ], [ -85.375823, 45.802688 ], [ -85.368315, 45.808113 ], [ -85.377958, 45.814067 ], [ -85.36308, 45.817907 ], [ -85.350681, 45.802976 ], [ -85.360187, 45.789529 ], [ -85.357638, 45.778529 ], [ -85.377129, 45.769012 ], [ -85.394765, 45.777136 ] ] ], [ [ [ -85.526603, 45.814441 ], [ -85.52333, 45.828479 ], [ -85.492486, 45.819342 ], [ -85.471346, 45.806474 ], [ -85.47122, 45.799181 ], [ -85.453722, 45.794354 ], [ -85.466391, 45.786152 ], [ -85.455474, 45.777831 ], [ -85.505752, 45.778086 ], [ -85.494793, 45.791539 ], [ -85.505874, 45.799025 ], [ -85.530841, 45.799045 ], [ -85.518025, 45.803043 ], [ -85.526603, 45.814441 ] ] ], [ [ [ -85.299763, 45.815102 ], [ -85.30071, 45.817721 ], [ -85.299049, 45.817526 ], [ -85.299763, 45.815102 ] ] ] ] } },
{ "type": "Feature", "properties": { "region_number": 3, "region_name": "Northeast Prosperity Region" }, "geometry": { "type": "MultiPolygon", "coordinates": [ [ [ [ -83.565073732392406, 44.163518743546497 ], [ -84.851705, 44.161375 ], [ -84.855795, 44.421984 ], [ -84.847309, 44.858037 ], [ -84.857452, 45.116707 ], [ -84.734799, 45.114903 ], [ -84.732398150633401, 45.788209489903799 ], [ -84.723059, 45.783785 ], [ -84.721273, 45.766401 ], [ -84.557644, 45.709023 ], [ -84.551708, 45.696937 ], [ -84.479222, 45.656791 ], [ -84.442669, 45.654759 ], [ -84.428624, 45.644676 ], [ -84.415925, 45.652985 ], [ -84.432386, 45.66331 ], [ -84.428394, 45.668857 ], [ -84.376063, 45.655432 ], [ -84.329537, 45.66438 ], [ -84.215878, 45.634817 ], [ -84.137355, 45.571642 ], [ -84.128846, 45.561891 ], [ -84.120005, 45.517676 ], [ -84.089758, 45.494433 ], [ -84.060632, 45.488857 ], [ -84.035866, 45.497754 ], [ -83.93609, 45.492353 ], [ -83.909472, 45.485784 ], [ -83.824655, 45.42693 ], [ -83.779845, 45.416636 ], [ -83.786856, 45.41015 ], [ -83.757931, 45.412014 ], [ -83.740239, 45.403808 ], [ -83.736869, 45.411268 ], [ -83.716132, 45.414455 ], [ -83.700423, 45.397739 ], [ -83.631092, 45.36502 ], [ -83.6106, 45.363072 ], [ -83.598976, 45.351979 ], [ -83.583303, 45.348079 ], [ -83.583987, 45.354987 ], [ -83.569576, 45.34731 ], [ -83.538166, 45.358055 ], [ -83.494514, 45.339366 ], [ -83.4907, 45.349723 ], [ -83.497296, 45.359535 ], [ -83.489928, 45.358467 ], [ -83.477252, 45.34512 ], [ -83.488691, 45.34087 ], [ -83.485695, 45.330028 ], [ -83.463546, 45.330538 ], [ -83.462862, 45.31949 ], [ -83.451189, 45.319462 ], [ -83.421855, 45.290068 ], [ -83.381632, 45.269772 ], [ -83.39179, 45.252587 ], [ -83.418223, 45.255785 ], [ -83.409547, 45.248608 ], [ -83.412557, 45.239215 ], [ -83.373449, 45.194226 ], [ -83.363678, 45.166469 ], [ -83.348684, 45.161516 ], [ -83.334906, 45.142338 ], [ -83.316118, 45.141958 ], [ -83.322711, 45.13708 ], [ -83.315548, 45.126023 ], [ -83.319791, 45.116088 ], [ -83.300932, 45.09285 ], [ -83.31988, 45.087043 ], [ -83.313059, 45.085139 ], [ -83.319213, 45.075611 ], [ -83.311078, 45.0714 ], [ -83.315324, 45.052571 ], [ -83.278352, 45.045785 ], [ -83.262416, 45.025405 ], [ -83.34084, 45.042323 ], [ -83.36451, 45.057682 ], [ -83.366856, 45.076166 ], [ -83.385003, 45.077053 ], [ -83.437879, 45.055014 ], [ -83.454712, 45.032985 ], [ -83.449736, 45.028588 ], [ -83.456484, 45.017219 ], [ -83.431254, 45.007998 ], [ -83.45399, 45.011203 ], [ -83.463841, 45.003138 ], [ -83.447055, 44.983581 ], [ -83.443718, 44.952247 ], [ -83.433032, 44.93289 ], [ -83.366243, 44.890496 ], [ -83.315803, 44.881005 ], [ -83.321241, 44.852962 ], [ -83.293739, 44.808307 ], [ -83.291003, 44.765505 ], [ -83.2973, 44.746134 ], [ -83.270288, 44.70878 ], [ -83.284937, 44.661237 ], [ -83.314517, 44.608725 ], [ -83.306985, 44.542235 ], [ -83.319067, 44.508458 ], [ -83.327171, 44.429234 ], [ -83.320532, 44.406932 ], [ -83.333757, 44.372486 ], [ -83.333708, 44.336579 ], [ -83.373607, 44.327784 ], [ -83.414301, 44.294543 ], [ -83.425762, 44.272487 ], [ -83.449184, 44.251796 ], [ -83.439233, 44.264887 ], [ -83.453128, 44.27638 ], [ -83.508839, 44.273711 ], [ -83.542264, 44.241077 ], [ -83.565073732392406, 44.163518743546497 ] ] ], [ [ [ -83.417586, 44.991927 ], [ -83.412818, 44.986207 ], [ -83.422528, 44.988308 ], [ -83.417586, 44.991927 ] ] ], [ [ [ -83.192673, 45.035912 ], [ -83.204946, 45.040747 ], [ -83.212075, 45.05231 ], [ -83.202015, 45.046114 ], [ -83.192673, 45.035912 ] ] ], [ [ [ -83.216899, 45.043798 ], [ -83.226983, 45.040481 ], [ -83.23046, 45.042692 ], [ -83.222956, 45.050704 ], [ -83.216899, 45.043798 ] ] ], [ [ [ -83.229755, 45.056965 ], [ -83.233851, 45.054977 ], [ -83.234009, 45.055993 ], [ -83.229755, 45.056965 ] ] ], [ [ [ -83.299288, 45.06504 ], [ -83.288947, 45.070389 ], [ -83.291702, 45.060336 ], [ -83.299288, 45.06504 ] ] ], [ [ [ -83.320104, 45.192564 ], [ -83.324881, 45.187083 ], [ -83.336341, 45.191599 ], [ -83.329886, 45.197735 ], [ -83.320104, 45.192564 ] ] ] ] } },
{ "type": "Feature", "properties": { "region_number": 4, "region_name": "West Michigan Prosperity Alliance" }, "geometry": { "type": "Polygon", "coordinates": [ [ [ -86.248874688113204, 42.481437578730699 ], [ -86.225613, 42.594765 ], [ -86.22905, 42.637693 ], [ -86.206596, 42.709536 ], [ -86.220582, 42.955791 ], [ -86.254646, 43.083409 ], [ -86.29759, 43.166 ], [ -86.427044, 43.374941 ], [ -86.471985, 43.500685 ], [ -86.538497, 43.617501 ], [ -86.534538, 43.668005 ], [ -86.454254, 43.756619 ], [ -86.437391, 43.789334 ], [ -86.430202, 43.827575 ], [ -86.463136, 43.970976 ], [ -86.508827, 44.032755 ], [ -86.512192, 44.063103 ], [ -86.429871, 44.119782 ], [ -86.388798936537398, 44.1786884726775 ], [ -85.940375, 44.164934 ], [ -85.087403, 44.164242 ], [ -85.084996, 43.46619 ], [ -84.845962, 43.466158 ], [ -84.845573, 43.292231 ], [ -84.835305, 43.2922 ], [ -84.837085, 42.770479 ], [ -85.074245, 42.770784 ], [ -85.071609, 42.421428 ], [ -86.273762673512607, 42.419282064446101 ], [ -86.248874688113204, 42.481437578730699 ] ] ] } },
{ "type": "Feature", "properties": { "region_number": 5, "region_name": "East Central Michigan Prosperity Region" }, "geometry": { "type": "MultiPolygon", "coordinates": [ [ [ [ -83.699532656383695, 43.588619151573603 ], [ -83.695621, 43.221422 ], [ -83.932071, 43.220377 ], [ -83.929079, 43.132782 ], [ -84.367891, 43.128452 ], [ -84.36776, 43.117942 ], [ -84.836889, 43.118851 ], [ -84.835305, 43.2922 ], [ -84.845573, 43.292231 ], [ -84.845962, 43.466158 ], [ -85.084996, 43.46619 ], [ -85.087403, 44.164242 ], [ -83.565073732392406, 44.163518743546497 ], [ -83.564446, 44.105537 ], [ -83.591361, 44.079237 ], [ -83.579866, 44.049439 ], [ -83.621078, 44.056186 ], [ -83.671488, 44.041842 ], [ -83.689153, 44.026766 ], [ -83.680563, 43.987646 ], [ -83.73843, 44.005199 ], [ -83.762806, 43.985767 ], [ -83.801683, 43.986252 ], [ -83.801255, 43.995178 ], [ -83.826049, 43.991028 ], [ -83.834387, 43.99715 ], [ -83.848173, 43.989535 ], [ -83.861374, 43.965867 ], [ -83.875498, 43.961945 ], [ -83.89059, 43.923812 ], [ -83.90627, 43.91819 ], [ -83.916, 43.89904 ], [ -83.928707, 43.777135 ], [ -83.956463, 43.760767 ], [ -83.939297, 43.715369 ], [ -83.905351, 43.670039 ], [ -83.847873, 43.641528 ], [ -83.839642, 43.654124 ], [ -83.816854, 43.643919 ], [ -83.814701, 43.635271 ], [ -83.735031, 43.61732 ], [ -83.709849, 43.601431 ], [ -83.699532656383695, 43.588619151573603 ] ] ], [ [ [ -83.829048, 43.673072 ], [ -83.817894, 43.673789 ], [ -83.818093, 43.665904 ], [ -83.830366, 43.66419 ], [ -83.829048, 43.673072 ] ] ], [ [ [ -83.467483, 44.003661 ], [ -83.463266, 44.001372 ], [ -83.471025, 44.002552 ], [ -83.467483, 44.003661 ] ] ], [ [ [ -83.428468, 44.032701 ], [ -83.437089, 44.023163 ], [ -83.441714, 44.037528 ], [ -83.428468, 44.032701 ] ] ] ] } },
{ "type": "Feature", "properties": { "region_number": 6, "region_name": "East Michigan Prosperity Region" }, "geometry": { "type": "MultiPolygon", "coordinates": [ [ [ [ -84.367891, 43.128452 ], [ -83.929079, 43.132782 ], [ -83.932071, 43.220377 ], [ -83.695621, 43.221422 ], [ -83.699532656383695, 43.588619151573603 ], [ -83.685207, 43.584437 ], [ -83.658436, 43.595504 ], [ -83.524233, 43.717173 ], [ -83.513691, 43.716861 ], [ -83.520609, 43.716069 ], [ -83.512841, 43.708305 ], [ -83.520123, 43.697513 ], [ -83.490496, 43.70259 ], [ -83.444621, 43.756052 ], [ -83.43167, 43.784364 ], [ -83.423899, 43.783911 ], [ -83.427342, 43.791238 ], [ -83.431745, 43.787017 ], [ -83.428411, 43.796891 ], [ -83.423944, 43.791432 ], [ -83.400235, 43.811483 ], [ -83.388511, 43.835468 ], [ -83.390392, 43.848386 ], [ -83.35505, 43.858186 ], [ -83.325064, 43.883999 ], [ -83.329382, 43.903239 ], [ -83.396416, 43.907714 ], [ -83.404628, 43.915292 ], [ -83.318094, 43.917388 ], [ -83.278866, 43.94125 ], [ -83.262471, 43.975315 ], [ -83.151267, 43.987764 ], [ -83.112393, 44.004698 ], [ -83.066026, 44.003366 ], [ -83.046577, 44.01571 ], [ -83.027675, 44.046204 ], [ -82.990728, 44.048846 ], [ -82.963861, 44.068266 ], [ -82.947368, 44.062187 ], [ -82.921538, 44.067896 ], [ -82.875889, 44.045046 ], [ -82.813891, 44.032374 ], [ -82.741726, 43.990388 ], [ -82.682758, 43.907241 ], [ -82.67824, 43.88059 ], [ -82.655428, 43.867761 ], [ -82.647529, 43.841266 ], [ -82.634091, 43.831502 ], [ -82.624323, 43.78694 ], [ -82.614982, 43.77925 ], [ -82.619484, 43.755778 ], [ -82.606757, 43.711081 ], [ -82.599039, 43.593637 ], [ -82.585543, 43.543438 ], [ -82.539439, 43.436766 ], [ -82.523086, 43.225361 ], [ -82.508881, 43.196748 ], [ -82.486042, 43.102486 ], [ -82.42654, 43.01724 ], [ -82.419366, 43.002722 ], [ -82.424969, 42.993383 ], [ -82.413474, 42.976887 ], [ -82.45562, 42.926713 ], [ -82.469912, 42.887459 ], [ -82.46891, 42.851557 ], [ -82.482574, 42.808644 ], [ -82.467776, 42.761397 ], [ -82.510944, 42.664547 ], [ -82.509935, 42.637294 ], [ -82.518782, 42.613888 ], [ -82.579569, 42.565306 ], [ -82.583996, 42.554041 ], [ -82.605742, 42.548167 ], [ -82.62433, 42.557134 ], [ -82.64307, 42.554321 ], [ -82.679059, 42.52221 ], [ -82.679522, 42.53552 ], [ -82.647899, 42.559345 ], [ -82.661328, 42.568623 ], [ -82.683313, 42.555493 ], [ -82.694062, 42.558562 ], [ -82.656455, 42.592424 ], [ -82.677133, 42.597411 ], [ -82.701152, 42.585991 ], [ -82.713042, 42.597904 ], [ -82.676539, 42.61298 ], [ -82.689836, 42.627148 ], [ -82.665487, 42.624174 ], [ -82.669103, 42.637225 ], [ -82.661812, 42.635595 ], [ -82.65289, 42.650577 ], [ -82.630922, 42.64211 ], [ -82.623797, 42.665395 ], [ -82.635262, 42.675552 ], [ -82.653241, 42.672232 ], [ -82.679583, 42.688724 ], [ -82.705966, 42.68631 ], [ -82.729277, 42.706059 ], [ -82.73901, 42.897541 ], [ -83.689384, 42.871263 ], [ -83.686493, 42.783263 ], [ -84.363659, 42.775778 ], [ -84.367891, 43.128452 ] ] ], [ [ [ -83.477045, 43.761541 ], [ -83.465961, 43.760005 ], [ -83.481212, 43.758229 ], [ -83.477045, 43.761541 ] ] ], [ [ [ -83.448576, 43.814784 ], [ -83.445266, 43.823907 ], [ -83.432994, 43.819419 ], [ -83.448576, 43.814784 ] ] ], [ [ [ -83.460691, 43.81636 ], [ -83.45129, 43.835083 ], [ -83.444604, 43.834367 ], [ -83.458255, 43.814683 ], [ -83.451568, 43.812382 ], [ -83.458932, 43.810051 ], [ -83.460691, 43.81636 ] ] ], [ [ [ -83.424672584763499, 43.839808689207402 ], [ -83.415733, 43.834181 ], [ -83.418443, 43.828008 ], [ -83.422559, 43.837568 ], [ -83.433818, 43.83553 ], [ -83.424672584763499, 43.839808689207402 ] ] ], [ [ [ -83.450721, 43.855506 ], [ -83.431585, 43.856621 ], [ -83.43782, 43.85544 ], [ -83.440416, 43.839388 ], [ -83.450721, 43.855506 ] ] ], [ [ [ -83.429812, 43.883058 ], [ -83.415151, 43.875292 ], [ -83.431784, 43.881781 ], [ -83.429812, 43.883058 ] ] ] ] } },
{ "type": "Feature", "properties": { "region_number": 7, "region_name": "South Central Prosperity Region" }, "geometry": { "type": "Polygon", "coordinates": [ [ [ -85.071609, 42.421428 ], [ -85.074245, 42.770784 ], [ -84.837085, 42.770479 ], [ -84.836889, 43.118851 ], [ -84.36776, 43.117942 ], [ -84.363659, 42.775778 ], [ -84.158189, 42.776639 ], [ -84.140713, 42.424611 ], [ -85.071609, 42.421428 ] ] ] } },
{ "type": "Feature", "properties": { "region_number": 8, "region_name": "Southwest Prosperity Region" }, "geometry": { "type": "Polygon", "coordinates": [ [ [ -84.826491, 42.072468 ], [ -84.825129909657406, 41.759990721213597 ], [ -86.824828, 41.76024 ], [ -86.68445, 41.840179 ], [ -86.597899, 41.918291 ], [ -86.489023, 42.116224 ], [ -86.404146, 42.196379 ], [ -86.355945, 42.254215 ], [ -86.308748, 42.334111 ], [ -86.273762673512607, 42.419282064446101 ], [ -84.718493, 42.42152 ], [ -84.709556, 42.070366 ], [ -84.826491, 42.072468 ] ] ] } },
{ "type": "Feature", "properties": { "region_number": 9, "region_name": "Southeast Michigan Prosperity Region" }, "geometry": { "type": "Polygon", "coordinates": [ [ [ -84.826491, 42.072468 ], [ -84.709556, 42.070366 ], [ -84.718493, 42.42152 ], [ -84.140713, 42.424611 ], [ -84.158189, 42.776639 ], [ -83.686493, 42.783263 ], [ -83.664808, 42.431179 ], [ -83.551907, 42.435166 ], [ -83.539396, 42.085598 ], [ -83.295268, 42.094243 ], [ -83.267598, 42.069084 ], [ -83.257615, 42.073684 ], [ -83.254548, 42.063962 ], [ -83.234393, 42.059025 ], [ -83.230433, 42.048678 ], [ -83.219674, 42.04912 ], [ -83.181659, 42.019248 ], [ -83.189703, 42.006233 ], [ -83.196674, 42.016924 ], [ -83.208651, 42.014932 ], [ -83.206238, 41.992085 ], [ -83.234125, 41.994504 ], [ -83.223256, 41.989191 ], [ -83.250314, 41.97382 ], [ -83.258704, 41.953072 ], [ -83.253539, 41.945188 ], [ -83.264535, 41.930983 ], [ -83.27, 41.939862 ], [ -83.291525, 41.945071 ], [ -83.319698, 41.933463 ], [ -83.34276, 41.879384 ], [ -83.383743, 41.869638 ], [ -83.410058, 41.827825 ], [ -83.439612, 41.813162 ], [ -83.444324, 41.790367 ], [ -83.427556, 41.741965 ], [ -83.438578, 41.745757 ], [ -83.440414, 41.758984 ], [ -83.479913, 41.757419 ], [ -83.468058, 41.750375 ], [ -83.469264, 41.740864 ], [ -83.45292, 41.740587 ], [ -83.455401, 41.732843 ], [ -84.805996, 41.696118 ], [ -84.805883, 41.760216 ], [ -84.825129909657406, 41.759990721213597 ], [ -84.826491, 42.072468 ] ] ] } },
{ "type": "Feature", "properties": { "region_number": 10, "region_name": "Detroit Metro Prosperity Region" }, "geometry": { "type": "MultiPolygon", "coordinates": [ [ [ [ -83.189927, 42.035987 ], [ -83.190997, 42.033428 ], [ -83.191591, 42.035369 ], [ -83.189927, 42.035987 ] ] ], [ [ [ -82.870347, 42.450888 ], [ -82.882181, 42.405191 ], [ -82.928716, 42.35837 ], [ -82.964455, 42.355166 ], [ -82.954311, 42.34891 ], [ -82.959763, 42.34003 ], [ -83.063637, 42.316857 ], [ -83.099643, 42.287136 ], [ -83.126361, 42.238412 ], [ -83.130606, 42.211039 ], [ -83.134384, 42.174621 ], [ -83.12127, 42.117454 ], [ -83.13202, 42.090166 ], [ -83.168236, 42.089015 ], [ -83.170534, 42.074824 ], [ -83.182364, 42.08338 ], [ -83.19104, 42.077441 ], [ -83.186657, 42.047704 ], [ -83.195394, 42.039871 ], [ -83.230433, 42.048678 ], [ -83.234393, 42.059025 ], [ -83.254548, 42.063962 ], [ -83.257615, 42.073684 ], [ -83.267598, 42.069084 ], [ -83.295268, 42.094243 ], [ -83.539396, 42.085598 ], [ -83.551907, 42.435166 ], [ -83.664808, 42.431179 ], [ -83.689384, 42.871263 ], [ -82.73901, 42.897541 ], [ -82.729277, 42.706059 ], [ -82.705374953302496, 42.686687062630597 ], [ -82.753317, 42.669732 ], [ -82.760265, 42.656572 ], [ -82.797318, 42.654032 ], [ -82.813518, 42.640833 ], [ -82.820667, 42.615265 ], [ -82.792606, 42.604761 ], [ -82.79072, 42.596026 ], [ -82.771519, 42.592744 ], [ -82.786823, 42.592249 ], [ -82.782414, 42.564834 ], [ -82.796715, 42.571034 ], [ -82.834216, 42.567849 ], [ -82.870731, 42.528879 ], [ -82.884371, 42.476573 ], [ -82.870347, 42.450888 ] ] ] ] } }
]
}
